{"type": "FeatureCollection", "features": [ {"type": "Feature", "properties": {"norad_id": 34976, "name": "COSMOS 2251 DEB", "group": "cosmos-2251-debris", "lat": 52.17423500929345, "lon": -20.808728665173017, "alt_km": 613.8301934966748, "timestamp": "2025-12-06T22:38:43.124723+00:00", "meta": {"OBJECT_NAME": "COSMOS 2251 DEB", "OBJECT_ID": "1993-036AFF", "EPOCH": "2025-12-05T23:53:17.031264", "MEAN_MOTION": 14.76338475, "ECCENTRICITY": 0.00478656, "INCLINATION": 74.0576, "RA_OF_ASC_NODE": 319.4421, "ARG_OF_PERICENTER": 7.6139, "MEAN_ANOMALY": 49.7121, "EPHEMERIS_TYPE": 0, "CLASSIFICATION_TYPE": "U", "NORAD_CAT_ID": 34976, "ELEMENT_SET_NO": 999, "REV_AT_EPOCH": 88174, "BSTAR": 0.0022163207, "MEAN_MOTION_DOT": 0.00015677, "MEAN_MOTION_DDOT": 0}, "tle": {"line1": "1 34976U 93036AFF 25339.99533601  .00015677  00000+0  22163-2 0  9999", "line2": "2 34976  74.0576 319.4421 0047865   7.6139  49.7121 14.76338475881740"}}, "geometry": {"type": "Point", "coordinates": [-20.808728665173017, 52.17423500929345]}}, {"type": "Feature", "properties": {"norad_id": 34979, "name": "COSMOS 2251 DEB", "group": "cosmos-2251-debris", "lat": 43.16189797031925, "lon": -65.76755216499674, "alt_km": 604.7050222733587, "timestamp": "2025-12-06T22:38:43.124734+00:00", "meta": {"OBJECT_NAME": "COSMOS 2251 DEB", "OBJECT_ID": "1993-036AFJ", "EPOCH": "2025-12-06T06:12:38.257632", "MEAN_MOTION": 14.79149571, "ECCENTRICITY": 0.00491456, "INCLINATION": 74.0405, "RA_OF_ASC_NODE": 280.0109, "ARG_OF_PERICENTER": 359.3177, "MEAN_ANOMALY": 0.7923, "EPHEMERIS_TYPE": 0, "CLASSIFICATION_TYPE": "U", "NORAD_CAT_ID": 34979, "ELEMENT_SET_NO": 999, "REV_AT_EPOCH": 88124, "BSTAR": 0.0025786605, "MEAN_MOTION_DOT": 0.00019535, "MEAN_MOTION_DDOT": 0}, "tle": {"line1": "1 34979U 93036AFJ 25340.25877613  .00019535  00000+0  25787-2 0  9999", "line2": "2 34979  74.0405 280.0109 0049145 359.3177   0.7923 14.79149571881244"}}, "geometry": {"type": "Point", "coordinates": [-65.76755216499674, 43.16189797031925]}}, {"type": "Feature", "properties": {"norad_id": 34990, "name": "COSMOS 2251 DEB", "group": "cosmos-2251-debris", "lat": -17.498571066829346, "lon": 87.25167500787818, "alt_km": 762.2820033159633, "timestamp": "2025-12-06T22:38:43.124744+00:00", "meta": {"OBJECT_NAME": "COSMOS 2251 DEB", "OBJECT_ID": "1993-036AFN", "EPOCH": "2025-12-06T03:25:03.726336", "MEAN_MOTION": 14.42345362, "ECCENTRICITY": 0.00163501, "INCLINATION": 74.0435, "RA_OF_ASC_NODE": 263.5611, "ARG_OF_PERICENTER": 326.4365, "MEAN_ANOMALY": 33.5754, "EPHEMERIS_TYPE": 0, "CLASSIFICATION_TYPE": "U", "NORAD_CAT_ID": 34990, "ELEMENT_SET_NO": 999, "REV_AT_EPOCH": 87251, "BSTAR": 0.00073818972, "MEAN_MOTION_DOT": 2.417e-05, "MEAN_MOTION_DDOT": 0}, "tle": {"line1": "1 34990U 93036AFN 25340.14240424  .00002417  00000+0  73819-3 0  9995", "line2": "2 34990  74.0435 263.5611 0016350 326.4365  33.5754 14.42345362872512"}}, "geometry": {"type": "Point", "coordinates": [87.25167500787818, -17.498571066829346]}}, {"type": "Feature", "properties": {"norad_id": 34997, "name": "COSMOS 2251 DEB", "group": "cosmos-2251-debris", "lat": -58.45703567408479, "lon": -65.9910976898684, "alt_km": 677.7183378469927, "timestamp": "2025-12-06T22:38:43.124754+00:00", "meta": {"OBJECT_NAME": "COSMOS 2251 DEB", "OBJECT_ID": "1993-036AFV", "EPOCH": "2025-11-29T18:09:59.976288", "MEAN_MOTION": 14.45289096, "ECCENTRICITY": 0.00981723, "INCLINATION": 73.8805, "RA_OF_ASC_NODE": 335.6343, "ARG_OF_PERICENTER": 312.7593, "MEAN_ANOMALY": 46.5333, "EPHEMERIS_TYPE": 0, "CLASSIFICATION_TYPE": "U", "NORAD_CAT_ID": 34997, "ELEMENT_SET_NO": 999, "REV_AT_EPOCH": 70559, "BSTAR": 0.0014679127, "MEAN_MOTION_DOT": 5.442e-05, "MEAN_MOTION_DDOT": 0}, "tle": {"line1": "1 34997U 93036AFV 25333.75694417  .00005442  00000+0  14679-2 0  9995", "line2": "2 34997  73.8805 335.6343 0098172 312.7593  46.5333 14.45289096705597"}}, "geometry": {"type": "Point", "coordinates": [-65.9910976898684, -58.45703567408479]}}, {"type": "Feature", "properties": {"norad_id": 34998, "name": "COSMOS 2251 DEB", "group": "cosmos-2251-debris", "lat": 71.53609901933373, "lon": -68.31318384002077, "alt_km": 732.6171723190819, "timestamp": "2025-12-06T22:38:43.124764+00:00", "meta": {"OBJECT_NAME": "COSMOS 2251 DEB", "OBJECT_ID": "1993-036AFW", "EPOCH": "2025-12-06T14:10:19.581024", "MEAN_MOTION": 14.49241816, "ECCENTRICITY": 0.00209325, "INCLINATION": 74.0093, "RA_OF_ASC_NODE": 171.5347, "ARG_OF_PERICENTER": 317.8049, "MEAN_ANOMALY": 100.156, "EPHEMERIS_TYPE": 0, "CLASSIFICATION_TYPE": "U", "NORAD_CAT_ID": 34998, "ELEMENT_SET_NO": 999, "REV_AT_EPOCH": 87331, "BSTAR": 0.00096729331, "MEAN_MOTION_DOT": 3.671e-05, "MEAN_MOTION_DDOT": 0}, "tle": {"line1": "1 34998U 93036AFW 25340.59050441  .00003671  00000+0  96729-3 0  9998", "line2": "2 34998  74.0093 171.5347 0020932 317.8049 100.1560 14.49241816873319"}}, "geometry": {"type": "Point", "coordinates": [-68.31318384002077, 71.53609901933373]}}, {"type": "Feature", "properties": {"norad_id": 35000, "name": "COSMOS 2251 DEB", "group": "cosmos-2251-debris", "lat": 67.17702074727784, "lon": -11.694884384364281, "alt_km": 331.0500259347982, "timestamp": "2025-12-06T22:38:43.124775+00:00", "meta": {"OBJECT_NAME": "COSMOS 2251 DEB", "OBJECT_ID": "1993-036AFY", "EPOCH": "2025-12-05T01:57:41.909184", "MEAN_MOTION": 15.71909029, "ECCENTRICITY": 0.00111913, "INCLINATION": 74.0016, "RA_OF_ASC_NODE": 215.5306, "ARG_OF_PERICENTER": 181.0558, "MEAN_ANOMALY": 179.0645, "EPHEMERIS_TYPE": 0, "CLASSIFICATION_TYPE": "U", "NORAD_CAT_ID": 35000, "ELEMENT_SET_NO": 999, "REV_AT_EPOCH": 88394, "BSTAR": 0.0088477225, "MEAN_MOTION_DOT": 0.01289352, "MEAN_MOTION_DDOT": 0}, "tle": {"line1": "1 35000U 93036AFY 25339.08173506  .01289352  00000+0  88477-2 0  9996", "line2": "2 35000  74.0016 215.5306 0011191 181.0558 179.0645 15.71909029883948"}}, "geometry": {"type": "Point", "coordinates": [-11.694884384364281, 67.17702074727784]}}, {"type": "Feature", "properties": {"norad_id": 35012, "name": "COSMOS 2251 DEB", "group": "cosmos-2251-debris", "lat": 29.27419962652554, "lon": -66.6900189919251, "alt_km": 762.2457879178955, "timestamp": "2025-12-06T22:38:43.124785+00:00", "meta": {"OBJECT_NAME": "COSMOS 2251 DEB", "OBJECT_ID": "1993-036AFZ", "EPOCH": "2025-12-05T16:03:05.006880", "MEAN_MOTION": 14.45534049, "ECCENTRICITY": 0.0081644, "INCLINATION": 74.0192, "RA_OF_ASC_NODE": 124.9327, "ARG_OF_PERICENTER": 266.5684, "MEAN_ANOMALY": 92.6133, "EPHEMERIS_TYPE": 0, "CLASSIFICATION_TYPE": "U", "NORAD_CAT_ID": 35012, "ELEMENT_SET_NO": 999, "REV_AT_EPOCH": 87459, "BSTAR": 0.00031143888, "MEAN_MOTION_DOT": 1.115e-05, "MEAN_MOTION_DDOT": 0}, "tle": {"line1": "1 35012U 93036AFZ 25339.66880795  .00001115  00000+0  31144-3 0  9996", "line2": "2 35012  74.0192 124.9327 0081644 266.5684  92.6133 14.45534049874590"}}, "geometry": {"type": "Point", "coordinates": [-66.6900189919251, 29.27419962652554]}}, {"type": "Feature", "properties": {"norad_id": 35014, "name": "COSMOS 2251 DEB", "group": "cosmos-2251-debris", "lat": 0.646589676692453, "lon": 55.079268868156085, "alt_km": 651.2104203621439, "timestamp": "2025-12-06T22:38:43.124795+00:00", "meta": {"OBJECT_NAME": "COSMOS 2251 DEB", "OBJECT_ID": "1993-036AGB", "EPOCH": "2025-12-06T11:14:51.604512", "MEAN_MOTION": 14.74986722, "ECCENTRICITY": 0.00077324, "INCLINATION": 74.0003, "RA_OF_ASC_NODE": 55.8234, "ARG_OF_PERICENTER": 231.5872, "MEAN_ANOMALY": 128.4607, "EPHEMERIS_TYPE": 0, "CLASSIFICATION_TYPE": "U", "NORAD_CAT_ID": 35014, "ELEMENT_SET_NO": 999, "REV_AT_EPOCH": 71244, "BSTAR": 0.0029951459, "MEAN_MOTION_DOT": 0.00020183, "MEAN_MOTION_DDOT": 0}, "tle": {"line1": "1 35014U 93036AGB 25340.46865283  .00020183  00000+0  29951-2 0  9991", "line2": "2 35014  74.0003  55.8234 0007732 231.5872 128.4607 14.74986722712449"}}, "geometry": {"type": "Point", "coordinates": [55.079268868156085, 0.646589676692453]}}, {"type": "Feature", "properties": {"norad_id": 35015, "name": "COSMOS 2251 DEB", "group": "cosmos-2251-debris", "lat": -70.73162096866598, "lon": 121.06082971737227, "alt_km": 784.9648740475222, "timestamp": "2025-12-06T22:38:43.124805+00:00", "meta": {"OBJECT_NAME": "COSMOS 2251 DEB", "OBJECT_ID": "1993-036AGC", "EPOCH": "2025-12-04T12:10:57.092736", "MEAN_MOTION": 14.4680235, "ECCENTRICITY": 0.0074187, "INCLINATION": 73.9485, "RA_OF_ASC_NODE": 250.189, "ARG_OF_PERICENTER": 121.2428, "MEAN_ANOMALY": 54.7861, "EPHEMERIS_TYPE": 0, "CLASSIFICATION_TYPE": "U", "NORAD_CAT_ID": 35015, "ELEMENT_SET_NO": 999, "REV_AT_EPOCH": 65321, "BSTAR": 0.0019089, "MEAN_MOTION_DOT": 7.135e-05, "MEAN_MOTION_DDOT": 0}, "tle": {"line1": "1 35015U 93036AGC 25338.50760524  .00007135  00000+0  19089-2 0  9999", "line2": "2 35015  73.9485 250.1890 0074187 121.2428  54.7861 14.46802350653215"}}, "geometry": {"type": "Point", "coordinates": [121.06082971737227, -70.73162096866598]}}, {"type": "Feature", "properties": {"norad_id": 35016, "name": "COSMOS 2251 DEB", "group": "cosmos-2251-debris", "lat": 13.888276708599923, "lon": 121.03282169011226, "alt_km": 731.1756555499805, "timestamp": "2025-12-06T22:38:43.124816+00:00", "meta": {"OBJECT_NAME": "COSMOS 2251 DEB", "OBJECT_ID": "1993-036AGD", "EPOCH": "2025-12-05T16:34:58.698624", "MEAN_MOTION": 14.35037232, "ECCENTRICITY": 0.01148794, "INCLINATION": 73.9297, "RA_OF_ASC_NODE": 307.4305, "ARG_OF_PERICENTER": 225.8736, "MEAN_ANOMALY": 312.1431, "EPHEMERIS_TYPE": 0, "CLASSIFICATION_TYPE": "U", "NORAD_CAT_ID": 35016, "ELEMENT_SET_NO": 999, "REV_AT_EPOCH": 86681, "BSTAR": 0.00066879232, "MEAN_MOTION_DOT": 2.026e-05, "MEAN_MOTION_DDOT": 0}, "tle": {"line1": "1 35016U 93036AGD 25339.69095716  .00002026  00000+0  66879-3 0  9999", "line2": "2 35016  73.9297 307.4305 0114879 225.8736 312.1431 14.35037232866813"}}, "geometry": {"type": "Point", "coordinates": [121.03282169011226, 13.888276708599923]}}]}